IRIDIUM 26              
1 24903U 97043A   25285.43382493  .00000642  00000+0  20896-3 0  9998
2 24903  86.3939  61.3201 0002253  88.4914 271.6541 14.37247311473583
IRIDIUM 22              
1 24907U 97043E   25285.66992897  .00000574  00000+0  19086-3 0  9995
2 24907  86.3937  64.8631 0002066  88.2478 271.8955 14.36049061473633
DUMMY MASS 1            
1 24925U 97048A   25285.64113743  .00000689  00000+0  73616-4 0  9990
2 24925  86.3299  80.9802 0008996  89.9619 270.2637 14.87093821522584
DUMMY MASS 2            
1 24926U 97048B   25285.48827717  .00000680  00000+0  73005-4 0  9999
2 24926  86.3298  82.6817 0009722  99.4340 260.7985 14.86844569522339
IRIDIUM 29              
1 24944U 97051A   25285.51130726  .00000622  00000+0  20498-3 0  9997
2 24944  86.3899  94.6590 0001899  90.2965 269.8450 14.36571713470114
IRIDIUM 33              
1 24946U 97051C   25285.62272661  .00000460  00000+0  15476-3 0  9996
2 24946  86.3815  93.8826 0009673  62.2711 297.9465 14.34968363469589
IRIDIUM 28              
1 24948U 97051E   25285.61955950  .00000616  00000+0  19952-3 0  9992
2 24948  86.3905  92.0598 0002587  83.4036 276.7456 14.37478149470713
IRIDIUM 36              
1 24967U 97056C   25285.49481727  .00000474  00000+0  15131-3 0  9997
2 24967  86.3936 123.7454 0002197  81.4541 278.6906 14.37700962469076
